[{"norad_id":"57104","company":"STARLINK","tle_line2":"2 57104  43.0048 340.4986 0001186 267.3119  92.7587 15.02539186128668","launch_date":"2023-06-23","type":"LEO","tle_line1":"1 57104U 23090D   25289.12828944  .00001432  00000+0  12106-3 0  9997","satellite_name":"STARLINK-6130"},{"norad_id":"57105","company":"STARLINK","tle_line2":"2 57105  43.0048 340.1118 0001371 271.9159  88.1526 15.02532873128673","launch_date":"2023-06-23","type":"LEO","tle_line1":"1 57105U 23090E   25289.19144514 -.00000516  00000+0 -23134-4 0  9997","satellite_name":"STARLINK-6097"},{"norad_id":"57106","company":"STARLINK","tle_line2":"2 57106  43.0034 340.0635 0001322 272.5990  87.4701 15.02534941128673","launch_date":"2023-06-23","type":"LEO","tle_line1":"1 57106U 23090F   25289.18589169  .00000667  00000+0  64482-4 0  9992","satellite_name":"STARLINK-6118"},{"norad_id":"57107","company":"STARLINK","tle_line2":"2 57107  43.0048 341.7781 0001596 267.0789  92.9871 15.02536476128626","launch_date":"2023-06-23","type":"LEO","tle_line1":"1 57107U 23090G   25288.84017988  .00000476  00000+0  50287-4 0  9996","satellite_name":"STARLINK-6131"},{"norad_id":"57108","company":"STARLINK","tle_line2":"2 57108  43.0035 340.0815 0001146 271.0037  89.0674 15.02537163128672","launch_date":"2023-06-23","type":"LEO","tle_line1":"1 57108U 23090H   25289.18810839  .00000735  00000+0  69488-4 0  9992","satellite_name":"STARLINK-6099"},{"norad_id":"57109","company":"STARLINK","tle_line2":"2 57109  43.0056 340.0146 0001357 269.6071  90.4616 15.02534677128677","launch_date":"2023-06-23","type":"LEO","tle_line1":"1 57109U 23090J   25289.17812434  .00000734  00000+0  69383-4 0  9998","satellite_name":"STARLINK-6139"},{"norad_id":"57110","company":"STARLINK","tle_line2":"2 57110  43.0030 340.0956 0001169 269.8089  90.2619 15.02534935128670","launch_date":"2023-06-23","type":"LEO","tle_line1":"1 57110U 23090K   25289.18922192  .00001205  00000+0  10429-3 0  9994","satellite_name":"STARLINK-6134"},{"norad_id":"57111","company":"STARLINK","tle_line2":"2 57111  43.0055 339.9217 0001183 265.7360  94.3347 15.02535023128670","launch_date":"2023-06-23","type":"LEO","tle_line1":"1 57111U 23090L   25289.16591272  .00000633  00000+0  61967-4 0  9992","satellite_name":"STARLINK-6140"},{"norad_id":"57112","company":"STARLINK","tle_line2":"2 57112  43.0053 341.8513 0001564 260.6298  99.4367 15.02547253128628","launch_date":"2023-06-23","type":"LEO","tle_line1":"1 57112U 23090M   25288.85017433 -.00001045  00000+0 -62289-4 0  9998","satellite_name":"STARLINK-6141"},{"norad_id":"57113","company":"STARLINK","tle_line2":"2 57113  43.0049 339.9623 0001232 264.3370  95.7332 15.02538094128677","launch_date":"2023-06-23","type":"LEO","tle_line1":"1 57113U 23090N   25289.17145865  .00000894  00000+0  81223-4 0  9994","satellite_name":"STARLINK-6142"},{"norad_id":"57114","company":"STARLINK","tle_line2":"2 57114  43.0051 339.9359 0001159 270.5630  89.5079 15.02537800128676","launch_date":"2023-06-23","type":"LEO","tle_line1":"1 57114U 23090P   25289.16813159  .00000351  00000+0  41082-4 0  9999","satellite_name":"STARLINK-6125"},{"norad_id":"57115","company":"STARLINK","tle_line2":"2 57115  43.0024 337.9535 0008727 352.7716   7.3001 15.06853550128699","launch_date":"2023-06-23","type":"LEO","tle_line1":"1 57115U 23090Q   25289.12831742  .00018771  00000+0  12474-2 0  9990","satellite_name":"STARLINK-6085"},{"norad_id":"57116","company":"STARLINK","tle_line2":"2 57116  43.0038 339.9886 0001030 277.4442  82.6283 15.02534580128676","launch_date":"2023-06-23","type":"LEO","tle_line1":"1 57116U 23090R   25289.17479381  .00000217  00000+0  31140-4 0  9992","satellite_name":"STARLINK-6129"},{"norad_id":"57117","company":"STARLINK","tle_line2":"2 57117  43.0038 339.8667 0001355 271.0300  89.0387 15.02533697128669","launch_date":"2023-06-23","type":"LEO","tle_line1":"1 57117U 23090S   25289.15925140 -.00000209  00000+0 -39862-6 0  9994","satellite_name":"STARLINK-6148"},{"norad_id":"57118","company":"STARLINK","tle_line2":"2 57118  42.9936 303.2568 0003070 117.0837 209.2676 15.53062290  5977","launch_date":"2023-06-23","type":"LEO","tle_line1":"1 57118U 23090T   25289.16670139  .00290452  00000+0  43686-2 0  9995","satellite_name":"STARLINK-6151"},{"norad_id":"57119","company":"STARLINK","tle_line2":"2 57119  43.0050 339.8354 0001383 277.6806  82.3879 15.02544378128673","launch_date":"2023-06-23","type":"LEO","tle_line1":"1 57119U 23090U   25289.15480704  .00001113  00000+0  97409-4 0  9990","satellite_name":"STARLINK-6150"},{"norad_id":"57120","company":"STARLINK","tle_line2":"2 57120  43.0041 339.8833 0001240 265.9126  94.1575 15.02534442128679","launch_date":"2023-06-23","type":"LEO","tle_line1":"1 57120U 23090V   25289.16147227  .00001233  00000+0  10632-3 0  9998","satellite_name":"STARLINK-6147"},{"norad_id":"57121","company":"STARLINK","tle_line2":"2 57121  43.0050 341.2111 0001054 262.7753  97.2970 15.02535028128449","launch_date":"2023-06-23","type":"LEO","tle_line1":"1 57121U 23090W   25288.88002352  .00001130  00000+0  98746-4 0  9995","satellite_name":"STARLINK-6152"},{"norad_id":"57122","company":"STARLINK","tle_line2":"2 57122  43.0051 339.8082 0001321 265.1270  94.9422 15.02534963128677","launch_date":"2023-06-23","type":"LEO","tle_line1":"1 57122U 23090X   25289.15148162  .00000191  00000+0  29227-4 0  9991","satellite_name":"STARLINK-6149"},{"norad_id":"57123","company":"STARLINK","tle_line2":"2 57123  43.0044 342.9919 0001273 265.2441  94.8256 15.02532853128390","launch_date":"2023-06-23","type":"LEO","tle_line1":"1 57123U 23090Y   25288.54430520  .00001172  00000+0  10186-3 0  9999","satellite_name":"STARLINK-6154"},{"norad_id":"57124","company":"STARLINK","tle_line2":"2 57124  43.0062 339.7950 0001135 267.5745  92.4967 15.02531481128679","launch_date":"2023-06-23","type":"LEO","tle_line1":"1 57124U 23090Z   25289.14926509  .00001116  00000+0  97704-4 0  9994","satellite_name":"STARLINK-6146"},{"norad_id":"57125","company":"STARLINK","tle_line2":"2 57125  43.0031 327.4765 0000949 271.3408  88.7326 15.02531348128629","launch_date":"2023-06-23","type":"LEO","tle_line1":"1 57125U 23090AA  25289.12855010  .00000743  00000+0  70046-4 0  9996","satellite_name":"STARLINK-6100"},{"norad_id":"57126","company":"STARLINK","tle_line2":"2 57126  43.0054 339.7847 0001157 266.7016  93.3694 15.02531238128670","launch_date":"2023-06-23","type":"LEO","tle_line1":"1 57126U 23090AB  25289.14815881  .00000413  00000+0  45668-4 0  9997","satellite_name":"STARLINK-6167"},{"norad_id":"57127","company":"STARLINK","tle_line2":"2 57127  43.0079 344.7621 0001182 261.4273  98.6436 15.02535061128343","launch_date":"2023-06-23","type":"LEO","tle_line1":"1 57127U 23090AC  25288.20747463  .00000114  00000+0  23487-4 0  9997","satellite_name":"STARLINK-6165"},{"norad_id":"57128","company":"STARLINK","tle_line2":"2 57128  43.0047 341.2025 0001218 265.3384  94.7319 15.02536995128440","launch_date":"2023-06-23","type":"LEO","tle_line1":"1 57128U 23090AD  25288.87890872  .00000699  00000+0  66832-4 0  9993","satellite_name":"STARLINK-6163"},{"norad_id":"57129","company":"STARLINK","tle_line2":"2 57129  43.0060 327.5892 0001285 269.9722  90.0973 15.02536001128628","launch_date":"2023-06-23","type":"LEO","tle_line1":"1 57129U 23090AE  25289.14297676  .00000305  00000+0  37663-4 0  9992","satellite_name":"STARLINK-6170"},{"norad_id":"57130","company":"STARLINK","tle_line2":"2 57130  43.0043 342.9671 0001057 274.0436  86.0286 15.02537118128399","launch_date":"2023-06-23","type":"LEO","tle_line1":"1 57130U 23090AF  25288.54096964  .00000923  00000+0  83365-4 0  9990","satellite_name":"STARLINK-6172"},{"norad_id":"57131","company":"STARLINK","tle_line2":"2 57131  43.0043 327.5530 0001278 268.1447  91.9249 15.02535091128622","launch_date":"2023-06-23","type":"LEO","tle_line1":"1 57131U 23090AG  25289.13853705  .00000266  00000+0  34776-4 0  9993","satellite_name":"STARLINK-6162"},{"norad_id":"57132","company":"STARLINK","tle_line2":"2 57132  43.0045 341.1119 0000973 268.9989  91.0742 15.02538811128442","launch_date":"2023-06-23","type":"LEO","tle_line1":"1 57132U 23090AH  25288.86670314  .00000796  00000+0  73980-4 0  9994","satellite_name":"STARLINK-6128"},{"norad_id":"57133","company":"STARLINK","tle_line2":"2 57133  43.0058 327.4548 0001439 268.1970  91.8707 15.02537996128622","launch_date":"2023-06-23","type":"LEO","tle_line1":"1 57133U 23090AJ  25289.12521469  .00000783  00000+0  73002-4 0  9992","satellite_name":"STARLINK-6143"},{"norad_id":"57134","company":"STARLINK","tle_line2":"2 57134  43.0021 329.3670 0000412 329.8106  30.2713 15.02534114128573","launch_date":"2023-06-23","type":"LEO","tle_line1":"1 57134U 23090AK  25288.80726120  .00000447  00000+0  48142-4 0  9992","satellite_name":"STARLINK-6133"},{"norad_id":"57135","company":"STARLINK","tle_line2":"2 57135  43.0047 327.3786 0001120 273.8479  86.2235 15.02536902128629","launch_date":"2023-06-23","type":"LEO","tle_line1":"1 57135U 23090AL  25289.11522707  .00001597  00000+0  13325-3 0  9994","satellite_name":"STARLINK-6127"},{"norad_id":"57136","company":"STARLINK","tle_line2":"2 57136  43.0058 327.5340 0001481 277.1150  82.9524 15.02534146128647","launch_date":"2023-06-23","type":"LEO","tle_line1":"1 57136U 23090AM  25289.13632088 -.00002324  00000+0 -15705-3 0  9996","satellite_name":"STARLINK-6112"},{"norad_id":"57137","company":"STARLINK","tle_line2":"2 57137  43.0029 330.6843 0001423 258.9978 101.0704 15.02532953128535","launch_date":"2023-06-23","type":"LEO","tle_line1":"1 57137U 23090AN  25288.52469880  .00000454  00000+0  48692-4 0  9999","satellite_name":"STARLINK-5347"},{"norad_id":"57138","company":"STARLINK","tle_line2":"2 57138  43.0034 327.5257 0001015 265.1558  94.9168 15.02533818128622","launch_date":"2023-06-23","type":"LEO","tle_line1":"1 57138U 23090AP  25289.13520707  .00000444  00000+0  47961-4 0  9991","satellite_name":"STARLINK-5336"}]